
    {
      "type": "Feature",
      "properties": {
        "@id": "relation/3728520",
        "admin_level": "8",
        "boundary": "administrative",
        "is_in:country": "Penipe",
        "is_in:state": "Provincia de Chimborazo",
        "municipality_code": "fixme",
        "name": "La Candelaria",
        "place": "municipality",
        "type": "boundary"
      },
      "geometry": {
        "type": "Polygon",
        "coordinates": [
          [
            [
              -78.429435,
              -1.6404221
            ],
            [
              -78.4349186,
              -1.6405033
            ],
            [
              -78.4364583,
              -1.638688
            ],
            [
              -78.4375045,
              -1.6370305
            ],
            [
              -78.4390836,
              -1.6364978
            ],
            [
              -78.4398337,
              -1.635156
            ],
            [
              -78.4398337,
              -1.6331631
            ],
            [
              -78.4392218,
              -1.6324331
            ],
            [
              -78.4384717,
              -1.6273226
            ],
            [
              -78.4390047,
              -1.6257046
            ],
            [
              -78.4387481,
              -1.6238893
            ],
            [
              -78.4410576,
              -1.6257835
            ],
            [
              -78.4414524,
              -1.626553
            ],
            [
              -78.4423407,
              -1.6265925
            ],
            [
              -78.4443739,
              -1.6251916
            ],
            [
              -78.4453411,
              -1.6232973
            ],
            [
              -78.4460715,
              -1.6216793
            ],
            [
              -78.4472953,
              -1.6203967
            ],
            [
              -78.4492693,
              -1.6196864
            ],
            [
              -78.4498023,
              -1.6187985
            ],
            [
              -78.4578165,
              -1.6187985
            ],
            [
              -78.4591786,
              -1.6165096
            ],
            [
              -78.4609354,
              -1.6146943
            ],
            [
              -78.4621987,
              -1.6135498
            ],
            [
              -78.4625935,
              -1.6085182
            ],
            [
              -78.4632844,
              -1.607058
            ],
            [
              -78.465515,
              -1.6046902
            ],
            [
              -78.4666204,
              -1.6045521
            ],
            [
              -78.4683575,
              -1.6035655
            ],
            [
              -78.4686536,
              -1.6028749
            ],
            [
              -78.4698182,
              -1.602796
            ],
            [
              -78.4728384,
              -1.6010596
            ],
            [
              -78.4837347,
              -1.6019278
            ],
            [
              -78.4872286,
              -1.6012766
            ],
            [
              -78.489242,
              -1.6004676
            ],
            [
              -78.490308,
              -1.5994218
            ],
            [
              -78.4922227,
              -1.6005071
            ],
            [
              -78.494473,
              -1.6003492
            ],
            [
              -78.4965457,
              -1.6013358
            ],
            [
              -78.4974537,
              -1.6010004
            ],
            [
              -78.5050535,
              -1.6042167
            ],
            [
              -78.5067708,
              -1.6052822
            ],
            [
              -78.5084289,
              -1.6054598
            ],
            [
              -78.5086461,
              -1.6064464
            ],
            [
              -78.5108767,
              -1.607137
            ],
            [
              -78.5143903,
              -1.6075316
            ],
            [
              -78.5153884,
              -1.6082316
            ],
            [
              -78.5148461,
              -1.6090499
            ],
            [
              -78.5142179,
              -1.6088349
            ],
            [
              -78.5136548,
              -1.6084329
            ],
            [
              -78.5133782,
              -1.6084114
            ],
            [
              -78.5131097,
              -1.6086459
            ],
            [
              -78.5126897,
              -1.6092997
            ],
            [
              -78.5112912,
              -1.6107479
            ],
            [
              -78.5107582,
              -1.6138063
            ],
            [
              -78.5109359,
              -1.614931
            ],
            [
              -78.5124756,
              -1.616845
            ],
            [
              -78.5126137,
              -1.617733
            ],
            [
              -78.5121597,
              -1.6194496
            ],
            [
              -78.5123769,
              -1.6204757
            ],
            [
              -78.5140942,
              -1.6220937
            ],
            [
              -78.5140942,
              -1.6234354
            ],
            [
              -78.5132651,
              -1.6245009
            ],
            [
              -78.5131665,
              -1.6253297
            ],
            [
              -78.5140153,
              -1.6259808
            ],
            [
              -78.5138771,
              -1.6275002
            ],
            [
              -78.5132454,
              -1.6281908
            ],
            [
              -78.5132849,
              -1.6288419
            ],
            [
              -78.5146667,
              -1.6301047
            ],
            [
              -78.5164038,
              -1.6313084
            ],
            [
              -78.5165617,
              -1.632512
            ],
            [
              -78.5165222,
              -1.6339129
            ],
            [
              -78.5153576,
              -1.6347614
            ],
            [
              -78.5135218,
              -1.6353336
            ],
            [
              -78.5134823,
              -1.6382736
            ],
            [
              -78.5143706,
              -1.6394575
            ],
            [
              -78.5142916,
              -1.641845
            ],
            [
              -78.513581,
              -1.6442523
            ],
            [
              -78.5136205,
              -1.6468568
            ],
            [
              -78.5127914,
              -1.6492049
            ],
            [
              -78.5127322,
              -1.6497376
            ],
            [
              -78.5130875,
              -1.6508426
            ],
            [
              -78.5123966,
              -1.651474
            ],
            [
              -78.5109556,
              -1.6519673
            ],
            [
              -78.5103239,
              -1.6535655
            ],
            [
              -78.5080736,
              -1.655736
            ],
            [
              -78.5062378,
              -1.6557754
            ],
            [
              -78.5053693,
              -1.6569198
            ],
            [
              -78.5039283,
              -1.6573145
            ],
            [
              -78.5035138,
              -1.6575907
            ],
            [
              -78.502132,
              -1.6570382
            ],
            [
              -78.5002567,
              -1.6566436
            ],
            [
              -78.4995066,
              -1.6569988
            ],
            [
              -78.4981249,
              -1.6561109
            ],
            [
              -78.496447,
              -1.6551638
            ],
            [
              -78.4950455,
              -1.6553216
            ],
            [
              -78.4916503,
              -1.657058
            ],
            [
              -78.4913936,
              -1.6576104
            ],
            [
              -78.4901895,
              -1.6578275
            ],
            [
              -78.4891038,
              -1.6582616
            ],
            [
              -78.4842084,
              -1.6584194
            ],
            [
              -78.4832412,
              -1.6579656
            ],
            [
              -78.4814054,
              -1.6580051
            ],
            [
              -78.4794709,
              -1.6587746
            ],
            [
              -78.4778523,
              -1.659702
            ],
            [
              -78.4755822,
              -1.6602742
            ],
            [
              -78.4735885,
              -1.6609253
            ],
            [
              -78.4687326,
              -1.6630958
            ],
            [
              -78.4641332,
              -1.6657595
            ],
            [
              -78.4617052,
              -1.6685811
            ],
            [
              -78.4594549,
              -1.6711856
            ],
            [
              -78.4591391,
              -1.6722905
            ],
            [
              -78.4560795,
              -1.6720932
            ],
            [
              -78.4533554,
              -1.6727641
            ],
            [
              -78.4518004,
              -1.6725581
            ],
            [
              -78.451285,
              -1.6724898
            ],
            [
              -78.4508209,
              -1.6724283
            ],
            [
              -78.4500786,
              -1.67233
            ],
            [
              -78.4487878,
              -1.6718166
            ],
            [
              -78.4482428,
              -1.6715999
            ],
            [
              -78.447591,
              -1.6715336
            ],
            [
              -78.4461109,
              -1.6713829
            ],
            [
              -78.4431895,
              -1.6717972
            ],
            [
              -78.440801,
              -1.6723103
            ],
            [
              -78.4395103,
              -1.6727856
            ],
            [
              -78.4389257,
              -1.6730009
            ],
            [
              -78.43784,
              -1.6722905
            ],
            [
              -78.4368136,
              -1.6722511
            ],
            [
              -78.4317602,
              -1.674461
            ],
            [
              -78.4308127,
              -1.6745991
            ],
            [
              -78.4285032,
              -1.6741058
            ],
            [
              -78.427003,
              -1.6738888
            ],
            [
              -78.4251277,
              -1.6726852
            ],
            [
              -78.4217522,
              -1.6728627
            ],
            [
              -78.4206666,
              -1.67233
            ],
            [
              -78.4196796,
              -1.671304
            ],
            [
              -78.4194427,
              -1.6706726
            ],
            [
              -78.4194427,
              -1.6696268
            ],
            [
              -78.419877,
              -1.668956
            ],
            [
              -78.4199757,
              -1.6682654
            ],
            [
              -78.4186729,
              -1.6696268
            ],
            [
              -78.4090689,
              -1.6746648
            ],
            [
              -78.4089807,
              -1.6717183
            ],
            [
              -78.4099677,
              -1.6691533
            ],
            [
              -78.4100861,
              -1.6673972
            ],
            [
              -78.4108939,
              -1.6652834
            ],
            [
              -78.4084083,
              -1.6649505
            ],
            [
              -78.4058618,
              -1.6644178
            ],
            [
              -78.4036499,
              -1.6632802
            ],
            [
              -78.4012823,
              -1.6609056
            ],
            [
              -78.396525,
              -1.6606293
            ],
            [
              -78.3917678,
              -1.6587943
            ],
            [
              -78.3882936,
              -1.657867
            ],
            [
              -78.3855855,
              -1.656195
            ],
            [
              -78.3832051,
              -1.6553029
            ],
            [
              -78.3771558,
              -1.6543913
            ],
            [
              -78.3763164,
              -1.655505
            ],
            [
              -78.3740093,
              -1.6574779
            ],
            [
              -78.3722841,
              -1.6571689
            ],
            [
              -78.3716768,
              -1.6563059
            ],
            [
              -78.3712888,
              -1.6545148
            ],
            [
              -78.3705319,
              -1.6527937
            ],
            [
              -78.3692086,
              -1.6517491
            ],
            [
              -78.3673712,
              -1.6493248
            ],
            [
              -78.363815,
              -1.6450788
            ],
            [
              -78.3650489,
              -1.6406097
            ],
            [
              -78.3661786,
              -1.6377253
            ],
            [
              -78.3660405,
              -1.6356231
            ],
            [
              -78.3657163,
              -1.6335173
            ],
            [
              -78.3640632,
              -1.6322545
            ],
            [
              -78.3639204,
              -1.6305878
            ],
            [
              -78.3657155,
              -1.6259983
            ],
            [
              -78.3660708,
              -1.6162508
            ],
            [
              -78.3667024,
              -1.6136067
            ],
            [
              -78.379178,
              -1.6135243
            ],
            [
              -78.3908748,
              -1.6156172
            ],
            [
              -78.3907073,
              -1.617431
            ],
            [
              -78.3912936,
              -1.6190495
            ],
            [
              -78.3929965,
              -1.6203052
            ],
            [
              -78.3943923,
              -1.620668
            ],
            [
              -78.3946435,
              -1.6223702
            ],
            [
              -78.3953414,
              -1.6228725
            ],
            [
              -78.4029346,
              -1.6230957
            ],
            [
              -78.410444,
              -1.6153381
            ],
            [
              -78.4136823,
              -1.6154498
            ],
            [
              -78.4148268,
              -1.6173752
            ],
            [
              -78.4159714,
              -1.6259699
            ],
            [
              -78.4173672,
              -1.6271977
            ],
            [
              -78.419098,
              -1.6328624
            ],
            [
              -78.4175068,
              -1.635011
            ],
            [
              -78.4178976,
              -1.637941
            ],
            [
              -78.4198796,
              -1.6411221
            ],
            [
              -78.429435,
              -1.6404221
            ]
          ]
        ]
      },
      "id": "relation/3728520"
    }
    